OBJECT_NAME,OBJECT_ID,EPOCH,MEAN_MOTION,ECCENTRICITY,INCLINATION,RA_OF_ASC_NODE,ARG_OF_PERICENTER,MEAN_ANOMALY,EPHEMERIS_TYPE,CLASSIFICATION_TYPE,NORAD_CAT_ID,ELEMENT_SET_NO,REV_AT_EPOCH,BSTAR,MEAN_MOTION_DOT,MEAN_MOTION_DDOT
STARLINK-11264 [DTC],2024-154D,2026-07-04T12:57:38.453760,15.69720592,.00008241,53.1592,275.4849,62.1361,297.9740,0,U,60906,999,10686,.12824772E-4,.966E-5,0
STARLINK-11226 [DTC],2024-154E,2026-07-04T12:50:34.364544,15.69715405,.0001162,53.1572,275.4518,66.4112,293.7028,0,U,60907,999,10686,.21735744E-4,.2046E-4,0
STARLINK-11229 [DTC],2024-154F,2026-07-04T06:36:46.713024,15.69717977,.00007724,53.1575,276.6748,80.9199,279.1906,0,U,60908,999,10682,.26993866E-4,.2684E-4,0
STARLINK-11265 [DTC],2024-154G,2026-07-03T23:26:37.279968,15.69709144,.00011282,53.1586,278.3737,75.9140,284.2003,0,U,60909,999,10677,.8341334E-5,.422E-5,0
STARLINK-11250 [DTC],2024-154H,2026-07-04T12:36:26.588736,15.69720972,.00009978,53.1585,275.3871,53.9226,306.1884,0,U,60910,999,10686,.14241222E-4,.1138E-4,0
STARLINK-11190 [DTC],2024-154J,2026-07-04T12:29:23.071488,15.69716254,.00008427,53.1576,275.3538,76.9590,283.1522,0,U,60911,999,10685,.12359347E-4,.91E-5,0
STARLINK-11225 [DTC],2024-154K,2026-07-04T06:15:35.582400,15.69714357,.00009793,53.1577,276.5755,86.6031,273.5099,0,U,60912,999,10681,.12980412E-4,.985E-5,0
STARLINK-11273 [DTC],2024-154L,2026-07-04T06:08:31.536384,15.69715034,.00006837,53.1574,276.5399,78.2409,281.8685,0,U,60913,999,10681,.10295848E-4,.66E-5,0
STARLINK-11271 [DTC],2024-154N,2026-07-03T23:47:39.592608,15.69717267,.00007711,53.1587,277.7327,84.6817,275.4289,0,U,60915,999,10677,.126974E-5,-.434E-5,0
STARLINK-32371,2024-154P,2026-07-04T11:48:28.321344,15.31728793,.00014391,53.1603,100.9033,94.8527,265.2639,0,U,60916,999,10422,.48061186E-3,.14591E-3,0
STARLINK-32369,2024-154Q,2026-07-04T11:41:44.760768,15.31710931,.00014254,53.1577,100.8780,75.3547,284.7612,0,U,60917,999,10422,.66131059E-4,.1688E-4,0
STARLINK-32317,2024-154R,2026-07-04T11:44:53.886912,15.30189768,.00009845,53.1584,101.5973,88.4550,271.6563,0,U,60918,999,10421,.16660529E-3,.4577E-4,0
STARLINK-32367,2024-154S,2026-07-04T11:58:24.636000,15.30217289,.00016057,53.1590,100.9475,79.4014,280.7168,0,U,60919,999,10422,.42197938E-3,.12166E-3,0
STARLINK-32345,2024-154T,2026-07-04T03:56:09.720960,15.30201057,.00018303,53.1582,103.1198,97.7160,262.4049,0,U,60920,999,10417,-.50390241E-4,-.1852E-4,0
STARLINK-32356,2024-154U,2026-07-04T11:35:02.133312,15.31714377,.00018484,53.1594,100.8430,81.9002,278.2209,0,U,60921,999,10423,.2769565E-3,.8242E-4,0
STARLINK-32274,2024-154V,2026-07-04T11:19:02.880768,15.30212643,.00014182,53.1625,101.4838,106.1882,253.9275,0,U,60922,999,10422,.14897452E-4,.82E-6,0
STARLINK-32373,2024-154W,2026-07-04T11:32:44.270880,15.30196210,.00012067,53.1590,101.5407,111.0000,249.1130,0,U,60923,999,10422,.17069465E-4,.146E-5,0
STARLINK-11239 [DTC],2024-155A,2026-07-04T13:29:24.719424,15.69702028,.00020992,53.1603,125.4757,90.4622,269.6637,0,U,60924,999,10675,.24244714E-4,.2347E-4,0
STARLINK-11245 [DTC],2024-155B,2026-07-04T13:08:11.557536,15.69726994,.00004935,53.1595,125.3770,205.0417,155.0577,0,U,60925,999,10675,.23544925E-4,.2267E-4,0
STARLINK-11244 [DTC],2024-155C,2026-07-04T12:54:04.232736,15.69710475,.00008772,53.1598,125.3146,81.3887,278.7231,0,U,60926,999,10680,.46019272E-4,.499E-4,0
STARLINK-11243 [DTC],2024-155D,2026-07-04T13:01:08.667552,15.69712311,.0001383,53.1595,125.3442,88.7425,271.3751,0,U,60927,999,10675,.27155337E-4,.2702E-4,0
STARLINK-11238 [DTC],2024-155E,2026-07-04T12:47:01.851648,15.69702357,.00005508,53.1589,125.2793,102.2850,257.8230,0,U,60928,999,10680,.41454241E-4,.4435E-4,0
STARLINK-11240 [DTC],2024-155F,2026-07-03T19:51:25.949088,15.69691809,.00014068,53.1589,128.7014,44.9700,315.1431,0,U,60929,999,10664,.44692684E-4,.4825E-4,0
STARLINK-11251 [DTC],2024-155G,2026-07-04T06:26:09.527712,15.69691978,.00012973,53.1602,126.4715,62.0145,298.1004,0,U,60930,999,10671,.45497536E-4,.4922E-4,0
STARLINK-11204 [DTC],2024-155H,2026-07-04T06:19:05.652768,15.69726246,.0001148,53.1566,126.4345,71.7708,288.3434,0,U,60931,999,10671,.81483823E-4,.93E-4,0
STARLINK-11246 [DTC],2024-155J,2026-07-04T03:08:39.819552,15.69694543,.000138,53.1592,127.0299,77.2747,282.8425,0,U,60932,999,10669,.50331664E-4,.5509E-4,0
STARLINK-11207 [DTC],2024-155K,2026-07-04T06:04:58.825632,15.69691353,.00016957,53.1587,126.3694,77.1108,283.0100,0,U,60933,999,10671,.23078178E-4,.2205E-4,0
STARLINK-11237 [DTC],2024-155L,2026-07-04T02:54:32.601888,15.69715504,.00011414,53.1610,126.9647,79.2725,280.8422,0,U,60934,999,10670,.448006E-5,-.46E-6,0
STARLINK-11253 [DTC],2024-155M,2026-07-04T13:22:19.961472,15.69711930,.00012566,53.1592,125.4382,83.5183,276.5978,0,U,60935,999,10675,.34031703E-4,.3536E-4,0
