STARLINK-11264 [DTC]    
1 60906U 24154D   26185.54002840  .00000966  00000+0  12825-4 0  9994
2 60906  53.1592 275.4849 0000824  62.1361 297.9740 15.69720592106865
STARLINK-11226 [DTC]    
1 60907U 24154E   26185.53511996  .00002046  00000+0  21736-4 0  9993
2 60907  53.1572 275.4518 0001162  66.4112 293.7028 15.69715405106864
STARLINK-11229 [DTC]    
1 60908U 24154F   26185.27554066  .00002684  00000+0  26994-4 0  9999
2 60908  53.1575 276.6748 0000772  80.9199 279.1906 15.69717977106823
STARLINK-11265 [DTC]    
1 60909U 24154G   26184.97682037  .00000422  00000+0  83413-5 0  9994
2 60909  53.1586 278.3737 0001128  75.9140 284.2003 15.69709144106775
STARLINK-11250 [DTC]    
1 60910U 24154H   26185.52530774  .00001138  00000+0  14241-4 0  9995
2 60910  53.1585 275.3871 0000997  53.9226 306.1884 15.69720972106869
STARLINK-11190 [DTC]    
1 60911U 24154J   26185.52040592  .00000910  00000+0  12359-4 0  9995
2 60911  53.1576 275.3538 0000842  76.9590 283.1522 15.69716254106858
STARLINK-11225 [DTC]    
1 60912U 24154K   26185.26082850  .00000985  00000+0  12980-4 0  9992
2 60912  53.1577 276.5755 0000979  86.6031 273.5099 15.69714357106813
STARLINK-11273 [DTC]    
1 60913U 24154L   26185.25592056  .00000660  00000+0  10296-4 0  9994
2 60913  53.1574 276.5399 0000683  78.2409 281.8685 15.69715034106819
STARLINK-11271 [DTC]    
1 60915U 24154N   26184.99143047 -.00000434  00000+0  12697-5 0  9996
2 60915  53.1587 277.7327 0000771  84.6817 275.4289 15.69717267106775
STARLINK-32371          
1 60916U 24154P   26185.49199446  .00014591  00000+0  48061-3 0  9997
2 60916  53.1603 100.9033 0001439  94.8527 265.2639 15.31728793104228
STARLINK-32369          
1 60917U 24154Q   26185.48732362  .00001688  00000+0  66131-4 0  9999
2 60917  53.1577 100.8780 0001425  75.3547 284.7612 15.31710931104220
STARLINK-32317          
1 60918U 24154R   26185.48951258  .00004577  00000+0  16661-3 0  9999
2 60918  53.1584 101.5973 0000984  88.4550 271.6563 15.30189768104215
STARLINK-32367          
1 60919U 24154S   26185.49889625  .00012166  00000+0  42198-3 0  9996
2 60919  53.1590 100.9475 0001605  79.4014 280.7168 15.30217289104222
STARLINK-32345          
1 60920U 24154T   26185.16400140 -.00001852  00000+0 -50390-4 0  9999
2 60920  53.1582 103.1198 0001830  97.7160 262.4049 15.30201057104172
STARLINK-32356          
1 60921U 24154U   26185.48266358  .00008242  00000+0  27696-3 0  9996
2 60921  53.1594 100.8430 0001848  81.9002 278.2209 15.31714377104233
STARLINK-32274          
1 60922U 24154V   26185.47156112  .00000082  00000+0  14897-4 0  9996
2 60922  53.1625 101.4838 0001418 106.1882 253.9275 15.30212643104227
STARLINK-32373          
1 60923U 24154W   26185.48106795  .00000146  00000+0  17069-4 0  9995
2 60923  53.1590 101.5407 0001206 111.0000 249.1130 15.30196210104222
STARLINK-11239 [DTC]    
1 60924U 24155A   26185.56209166  .00002347  00000+0  24245-4 0  9991
2 60924  53.1603 125.4757 0002099  90.4622 269.6637 15.69702028106753
STARLINK-11245 [DTC]    
1 60925U 24155B   26185.54735599  .00002267  00000+0  23545-4 0  9997
2 60925  53.1595 125.3770 0000493 205.0417 155.0577 15.69726994106759
STARLINK-11244 [DTC]    
1 60926U 24155C   26185.53754899  .00004990  00000+0  46019-4 0  9997
2 60926  53.1598 125.3146 0000877  81.3887 278.7231 15.69710475106805
STARLINK-11243 [DTC]    
1 60927U 24155D   26185.54246143  .00002702  00000+0  27155-4 0  9996
2 60927  53.1595 125.3442 0001383  88.7425 271.3751 15.69712311106755
STARLINK-11238 [DTC]    
1 60928U 24155E   26185.53266032  .00004435  00000+0  41454-4 0  9998
2 60928  53.1589 125.2793 0000550 102.2850 257.8230 15.69702357106802
STARLINK-11240 [DTC]    
1 60929U 24155F   26184.82738367  .00004825  00000+0  44693-4 0  9996
2 60929  53.1589 128.7014 0001406  44.9700 315.1431 15.69691809106646
STARLINK-11251 [DTC]    
1 60930U 24155G   26185.26816583  .00004922  00000+0  45498-4 0  9996
2 60930  53.1602 126.4715 0001297  62.0145 298.1004 15.69691978106710
STARLINK-11204 [DTC]    
1 60931U 24155H   26185.26325987  .00009300  00000+0  81484-4 0  9990
2 60931  53.1566 126.4345 0001148  71.7708 288.3434 15.69726246106711
STARLINK-11246 [DTC]    
1 60932U 24155J   26185.13101643  .00005509  00000+0  50332-4 0  9993
2 60932  53.1592 127.0299 0001380  77.2747 282.8425 15.69694543106698
STARLINK-11207 [DTC]    
1 60933U 24155K   26185.25345863  .00002205  00000+0  23078-4 0  9998
2 60933  53.1587 126.3694 0001695  77.1108 283.0100 15.69691353106715
STARLINK-11237 [DTC]    
1 60934U 24155L   26185.12121067 -.00000046  00000+0  44801-5 0  9993
2 60934  53.1610 126.9647 0001141  79.2725 280.8422 15.69715504106707
STARLINK-11253 [DTC]    
1 60935U 24155M   26185.55717548  .00003536  00000+0  34032-4 0  9996
2 60935  53.1592 125.4382 0001256  83.5183 276.5978 15.69711930106752
